start=new Date('2023-04-27T00:00:00.000Z').valueOf();
sats=[{"APOAPSIS":"548.054","ECCENTRICITY":"0.00012790","EPHEMERIS_TYPE":"0","FILE":"3894261","OBJECT_TYPE":"PAYLOAD","TLE_LINE1":"1 46371U 20062AY  23116.87622903  .00032191  00000-0  21693-2 0  9990","OBJECT_NAME":"STARLINK-1688","REV_AT_EPOCH":"14666","NORAD_CAT_ID":"46371","RA_OF_ASC_NODE":"20.4327","INCLINATION":"53.0548","TLE_LINE2":"2 46371  53.0548  20.4327 0001279 105.4789 254.6341 15.06414623146669","MEAN_MOTION_DDOT":"0.0000000000000","GP_ID":"230795798","RCS_SIZE":"LARGE","BSTAR":"0.00216930000000","CENTER_NAME":"EARTH","COUNTRY_CODE":"US","PERIOD":"95.591","MEAN_MOTION_DOT":"0.00032191","REF_FRAME":"TEME","EPOCH":"2023-04-26T21:01:46.188192","MEAN_ANOMALY":"254.6341","MEAN_MOTION":"15.06414623","OBJECT_ID":"2020-062AY","SITE":"AFETR","PERIAPSIS":"546.283","LAUNCH_DATE":"2020-09-03","TIME_SYSTEM":"UTC","ELEMENT_SET_NO":"999","MEAN_ELEMENT_THEORY":"SGP4","ARG_OF_PERICENTER":"105.4789","DECAY_DATE":null,"SEMIMAJOR_AXIS":"6925.304","CLASSIFICATION_TYPE":"U"},{"BSTAR":"0.00202820000000","RCS_SIZE":"LARGE","GP_ID":"230797049","MEAN_MOTION_DDOT":"0.0000000000000","TLE_LINE2":"2 46372  53.0555  40.9873 0001186  98.6312 261.4811 15.06421537146360","INCLINATION":"53.0555","RA_OF_ASC_NODE":"40.9873","NORAD_CAT_ID":"46372","REV_AT_EPOCH":"14636","OBJECT_NAME":"STARLINK-1689","TLE_LINE1":"1 46372U 20062AZ  23116.75275138  .00030075  00000-0  20282-2 0  9994","FILE":"3894261","OBJECT_TYPE":"PAYLOAD","EPHEMERIS_TYPE":"0","APOAPSIS":"547.969","ECCENTRICITY":"0.00011860","CLASSIFICATION_TYPE":"U","SEMIMAJOR_AXIS":"6925.283","ARG_OF_PERICENTER":"98.6312","DECAY_DATE":null,"MEAN_ELEMENT_THEORY":"SGP4","ELEMENT_SET_NO":"999","TIME_SYSTEM":"UTC","LAUNCH_DATE":"2020-09-03","PERIAPSIS":"546.326","SITE":"AFETR","OBJECT_ID":"2020-062AZ","MEAN_MOTION":"15.06421537","MEAN_ANOMALY":"261.4811","EPOCH":"2023-04-26T18:03:57.719232","REF_FRAME":"TEME","MEAN_MOTION_DOT":"0.00030075","PERIOD":"95.591","COUNTRY_CODE":"US","CENTER_NAME":"EARTH"},{"BSTAR":"0.00210780000000","MEAN_MOTION_DDOT":"0.0000000000000","GP_ID":"230797298","RCS_SIZE":"LARGE","RA_OF_ASC_NODE":"331.2291","INCLINATION":"53.0538","TLE_LINE2":"2 46374  53.0538 331.2291 0000784 133.7878 226.3176 15.06418023147332","REV_AT_EPOCH":"14733","NORAD_CAT_ID":"46374","TLE_LINE1":"1 46374U 20062BB  23116.70030814  .00031269  00000-0  21078-2 0  9991","OBJECT_NAME":"STARLINK-1711","APOAPSIS":"547.701","ECCENTRICITY":"0.00007840","EPHEMERIS_TYPE":"0","OBJECT_TYPE":"PAYLOAD","FILE":"3894261","DECAY_DATE":null,"ARG_OF_PERICENTER":"133.7878","SEMIMAJOR_AXIS":"6925.293","CLASSIFICATION_TYPE":"U","ELEMENT_SET_NO":"999","MEAN_ELEMENT_THEORY":"SGP4","TIME_SYSTEM":"UTC","SITE":"AFETR","PERIAPSIS":"546.615","LAUNCH_DATE":"2020-09-03","OBJECT_ID":"2020-062BB","EPOCH":"2023-04-26T16:48:26.623296","MEAN_ANOMALY":"226.3176","MEAN_MOTION":"15.06418023","MEAN_MOTION_DOT":"0.00031269","REF_FRAME":"TEME","CENTER_NAME":"EARTH","PERIOD":"95.591","COUNTRY_CODE":"US"},{"CENTER_NAME":"EARTH","COUNTRY_CODE":"US","PERIOD":"95.592","MEAN_MOTION_DOT":"0.00013559","REF_FRAME":"TEME","EPOCH":"2023-04-26T18:44:34.014336","MEAN_ANOMALY":"299.0666","MEAN_MOTION":"15.06400867","OBJECT_ID":"2020-062BC","SITE":"AFETR","PERIAPSIS":"546.052","LAUNCH_DATE":"2020-09-03","TIME_SYSTEM":"UTC","ELEMENT_SET_NO":"999","MEAN_ELEMENT_THEORY":"SGP4","DECAY_DATE":null,"ARG_OF_PERICENTER":"61.0491","SEMIMAJOR_AXIS":"6925.346","CLASSIFICATION_TYPE":"U","APOAPSIS":"548.370","ECCENTRICITY":"0.00016730","EPHEMERIS_TYPE":"0","FILE":"3894261","OBJECT_TYPE":"PAYLOAD","TLE_LINE1":"1 46375U 20062BC  23116.78094924  .00013559  00000-0  92738-3 0  9996","OBJECT_NAME":"STARLINK-1724","REV_AT_EPOCH":"14699","NORAD_CAT_ID":"46375","RA_OF_ASC_NODE":"355.8671","INCLINATION":"53.0547","TLE_LINE2":"2 46375  53.0547 355.8671 0001673  61.0491 299.0666 15.06400867146998","MEAN_MOTION_DDOT":"0.0000000000000","GP_ID":"230796048","RCS_SIZE":"LARGE","BSTAR":"0.00092738000000"},{"REF_FRAME":"TEME","MEAN_MOTION_DOT":"0.00045217","COUNTRY_CODE":"US","PERIOD":"95.589","CENTER_NAME":"EARTH","OBJECT_ID":"2020-062BD","MEAN_MOTION":"15.06455984","MEAN_ANOMALY":"279.5316","EPOCH":"2023-04-26T20:41:18.233376","TIME_SYSTEM":"UTC","LAUNCH_DATE":"2020-09-03","PERIAPSIS":"546.552","SITE":"AFETR","CLASSIFICATION_TYPE":"U","SEMIMAJOR_AXIS":"6925.177","DECAY_DATE":null,"ARG_OF_PERICENTER":"80.5753","MEAN_ELEMENT_THEORY":"SGP4","ELEMENT_SET_NO":"999","OBJECT_NAME":"STARLINK-1742","TLE_LINE1":"1 46376U 20062BD  23116.86201659  .00045217  00000-0  30305-2 0  9998","FILE":"3894261","OBJECT_TYPE":"PAYLOAD","EPHEMERIS_TYPE":"0","APOAPSIS":"547.532","ECCENTRICITY":"0.00007080","NORAD_CAT_ID":"46376","REV_AT_EPOCH":"14700","TLE_LINE2":"2 46376  53.0521 355.4966 0000708  80.5753 279.5316 15.06455984147007","INCLINATION":"53.0521","RA_OF_ASC_NODE":"355.4966","BSTAR":"0.00303050000000","RCS_SIZE":"LARGE","GP_ID":"230796298","MEAN_MOTION_DDOT":"0.0000000000000"},{"RA_OF_ASC_NODE":"20.9480","TLE_LINE2":"2 46380  53.0555  20.9480 0001113  83.3536 276.7579 15.06310046146643","INCLINATION":"53.0555","MEAN_MOTION_DDOT":"0.0000000000000","RCS_SIZE":"LARGE","GP_ID":"230796550","BSTAR":"0.00779340000000","EPHEMERIS_TYPE":"0","APOAPSIS":"548.260","ECCENTRICITY":"0.00011130","FILE":"3894261","OBJECT_TYPE":"PAYLOAD","TLE_LINE1":"1 46380U 20062BH  23116.76202231  .00117464  00000-0  77934-2 0  9992","OBJECT_NAME":"STARLINK-1758","NORAD_CAT_ID":"46380","REV_AT_EPOCH":"14664","PERIAPSIS":"546.718","SITE":"AFETR","LAUNCH_DATE":"2020-09-03","TIME_SYSTEM":"UTC","ELEMENT_SET_NO":"999","MEAN_ELEMENT_THEORY":"SGP4","SEMIMAJOR_AXIS":"6925.624","ARG_OF_PERICENTER":"83.3536","DECAY_DATE":null,"CLASSIFICATION_TYPE":"U","CENTER_NAME":"EARTH","COUNTRY_CODE":"US","PERIOD":"95.598","REF_FRAME":"TEME","MEAN_MOTION_DOT":"0.00117464","EPOCH":"2023-04-26T18:17:18.727584","MEAN_MOTION":"15.06310046","MEAN_ANOMALY":"276.7579","OBJECT_ID":"2020-062BH"},{"MEAN_MOTION_DDOT":"0.0000000000000","GP_ID":"230796801","RCS_SIZE":"LARGE","BSTAR":"0.00237300000000","RA_OF_ASC_NODE":"355.1339","INCLINATION":"53.0552","TLE_LINE2":"2 46382  53.0552 355.1339 0001015  92.4128 267.6977 15.06450668147026","REV_AT_EPOCH":"14702","NORAD_CAT_ID":"46382","APOAPSIS":"547.761","ECCENTRICITY":"0.00010150","EPHEMERIS_TYPE":"0","FILE":"3894261","OBJECT_TYPE":"PAYLOAD","TLE_LINE1":"1 46382U 20062BK  23116.94313075  .00035290  00000-0  23730-2 0  9994","OBJECT_NAME":"STARLINK-1769","ELEMENT_SET_NO":"999","MEAN_ELEMENT_THEORY":"SGP4","DECAY_DATE":null,"ARG_OF_PERICENTER":"92.4128","SEMIMAJOR_AXIS":"6925.193","CLASSIFICATION_TYPE":"U","SITE":"AFETR","PERIAPSIS":"546.355","LAUNCH_DATE":"2020-09-03","TIME_SYSTEM":"UTC","EPOCH":"2023-04-26T22:38:06.496800","MEAN_ANOMALY":"267.6977","MEAN_MOTION":"15.06450668","OBJECT_ID":"2020-062BK","CENTER_NAME":"EARTH","COUNTRY_CODE":"US","PERIOD":"95.589","MEAN_MOTION_DOT":"0.00035290","REF_FRAME":"TEME"},{"OBJECT_TYPE":"PAYLOAD","FILE":"3894260","EPHEMERIS_TYPE":"0","ECCENTRICITY":"0.00013670","APOAPSIS":"548.426","OBJECT_NAME":"STARLINK-1770","TLE_LINE1":"1 46383U 20062BL  23116.19989650  .00020950  00000-0  14245-2 0  9998","NORAD_CAT_ID":"46383","REV_AT_EPOCH":"14627","TLE_LINE2":"2 46383  53.0543  43.4683 0001367  95.8168 264.2977 15.06313271146274","INCLINATION":"53.0543","RA_OF_ASC_NODE":"43.4683","RCS_SIZE":"LARGE","GP_ID":"230770523","MEAN_MOTION_DDOT":"0.0000000000000","BSTAR":"0.00142450000000","COUNTRY_CODE":"US","PERIOD":"95.598","CENTER_NAME":"EARTH","REF_FRAME":"TEME","MEAN_MOTION_DOT":"0.00020950","MEAN_MOTION":"15.06313271","MEAN_ANOMALY":"264.2977","EPOCH":"2023-04-26T04:47:51.057600","OBJECT_ID":"2020-062BL","LAUNCH_DATE":"2020-09-03","PERIAPSIS":"546.533","SITE":"AFETR","TIME_SYSTEM":"UTC","MEAN_ELEMENT_THEORY":"SGP4","ELEMENT_SET_NO":"999","CLASSIFICATION_TYPE":"U","SEMIMAJOR_AXIS":"6925.614","DECAY_DATE":null,"ARG_OF_PERICENTER":"95.8168"},{"BSTAR":"0.00143540000000","RCS_SIZE":"LARGE","GP_ID":"230769294","MEAN_MOTION_DDOT":"0.0000000000000","TLE_LINE2":"2 46384  53.0565  44.0530 0001800 100.4200 259.6992 15.06349890146258","INCLINATION":"53.0565","RA_OF_ASC_NODE":"44.0530","NORAD_CAT_ID":"46384","REV_AT_EPOCH":"14625","OBJECT_NAME":"STARLINK-1771","TLE_LINE1":"1 46384U 20062BM  23116.07089771  .00021134  00000-0  14354-2 0  9997","FILE":"3894260","OBJECT_TYPE":"PAYLOAD","EPHEMERIS_TYPE":"0","APOAPSIS":"548.614","ECCENTRICITY":"0.00018000","CLASSIFICATION_TYPE":"U","SEMIMAJOR_AXIS":"6925.502","DECAY_DATE":null,"ARG_OF_PERICENTER":"100.4200","MEAN_ELEMENT_THEORY":"SGP4","ELEMENT_SET_NO":"999","TIME_SYSTEM":"UTC","LAUNCH_DATE":"2020-09-03","PERIAPSIS":"546.121","SITE":"AFETR","OBJECT_ID":"2020-062BM","MEAN_MOTION":"15.06349890","MEAN_ANOMALY":"259.6992","EPOCH":"2023-04-26T01:42:05.562144","REF_FRAME":"TEME","MEAN_MOTION_DOT":"0.00021134","PERIOD":"95.595","COUNTRY_CODE":"US","CENTER_NAME":"EARTH"},{"BSTAR":"0.00150880000000","RCS_SIZE":"LARGE","GP_ID":"230795562","MEAN_MOTION_DDOT":"0.0000000000000","TLE_LINE2":"2 46532  53.0532 201.3664 0001514  77.0645 283.0513 15.06403468141546","INCLINATION":"53.0532","RA_OF_ASC_NODE":"201.3664","NORAD_CAT_ID":"46532","REV_AT_EPOCH":"14154","OBJECT_NAME":"STARLINK-1644","TLE_LINE1":"1 46532U 20070A   23116.66803146  .00022266  00000-0  15088-2 0  9998","FILE":"3894261","OBJECT_TYPE":"PAYLOAD","EPHEMERIS_TYPE":"0","ECCENTRICITY":"0.00015140","APOAPSIS":"548.251","CLASSIFICATION_TYPE":"U","SEMIMAJOR_AXIS":"6925.338","ARG_OF_PERICENTER":"77.0645","DECAY_DATE":null,"MEAN_ELEMENT_THEORY":"SGP4","ELEMENT_SET_NO":"999","TIME_SYSTEM":"UTC","LAUNCH_DATE":"2020-10-06","PERIAPSIS":"546.154","SITE":"AFETR","OBJECT_ID":"2020-070A","MEAN_MOTION":"15.06403468","MEAN_ANOMALY":"283.0513","EPOCH":"2023-04-26T16:01:57.918144","REF_FRAME":"TEME","MEAN_MOTION_DOT":"0.00022266","COUNTRY_CODE":"US","PERIOD":"95.592","CENTER_NAME":"EARTH"}];
